[{"OBJECT_NAME":"STARLINK-5150","OBJECT_ID":"2023-090AV","EPOCH":"2026-03-09T22:00:01.999584","MEAN_MOTION":15.1013784,"ECCENTRICITY":0.00012104,"INCLINATION":43.0005,"RA_OF_ASC_NODE":260.3876,"ARG_OF_PERICENTER":307.3924,"MEAN_ANOMALY":195.4184,"EPHEMERIS_TYPE":0,"CLASSIFICATION_TYPE":"U","NORAD_CAT_ID":57144,"ELEMENT_SET_NO":999,"REV_AT_EPOCH":578,"BSTAR":0.0046296775,"MEAN_MOTION_DOT":0.00077443,"MEAN_MOTION_DDOT":0},{"OBJECT_NAME":"FENGYUN 1C DEB","OBJECT_ID":"1999-025CFH","EPOCH":"2026-03-07T23:38:47.437728","MEAN_MOTION":14.44985594,"ECCENTRICITY":0.03068092,"INCLINATION":98.0605,"RA_OF_ASC_NODE":76.6957,"ARG_OF_PERICENTER":189.4978,"MEAN_ANOMALY":170.0331,"EPHEMERIS_TYPE":0,"CLASSIFICATION_TYPE":"U","NORAD_CAT_ID":31758,"ELEMENT_SET_NO":999,"REV_AT_EPOCH":95430,"BSTAR":0.0018761349,"MEAN_MOTION_DOT":0.00011691,"MEAN_MOTION_DDOT":0}]
